[{"OBJECT_NAME":"SCD 1","OBJECT_ID":"1993-009B","EPOCH":"2026-03-09T10:27:49.694112","MEAN_MOTION":14.46067729,"ECCENTRICITY":0.00420469,"INCLINATION":24.9688,"RA_OF_ASC_NODE":103.4557,"ARG_OF_PERICENTER":161.8893,"MEAN_ANOMALY":221.4416,"EPHEMERIS_TYPE":0,"CLASSIFICATION_TYPE":"U","NORAD_CAT_ID":22490,"ELEMENT_SET_NO":999,"REV_AT_EPOCH":74666,"BSTAR":9.424806e-5,"MEAN_MOTION_DOT":5.32e-6,"MEAN_MOTION_DDOT":0},{"OBJECT_NAME":"NOAA 16 DEB","OBJECT_ID":"2000-055X","EPOCH":"2026-03-09T22:04:19.045632","MEAN_MOTION":14.44789188,"ECCENTRICITY":0.00150196,"INCLINATION":98.8459,"RA_OF_ASC_NODE":202.3789,"ARG_OF_PERICENTER":165.8716,"MEAN_ANOMALY":194.2896,"EPHEMERIS_TYPE":0,"CLASSIFICATION_TYPE":"U","NORAD_CAT_ID":41064,"ELEMENT_SET_NO":999,"REV_AT_EPOCH":53365,"BSTAR":0.0029668681,"MEAN_MOTION_DOT":0.00010288,"MEAN_MOTION_DDOT":0}]
